NORAD_CAT_ID,OBJECT_NAME,OBJECT_TYPE,EPOCH,MEAN_MOTION,ECCENTRICITY,INCLINATION,RA_OF_ASC_NODE,ARG_OF_PERICENTER,MEAN_ANOMALY,BSTAR,MEAN_MOTION_DOT,MEAN_MOTION_DDOT,TLE_LINE0,TLE_LINE1,TLE_LINE2,SEMIMAJOR_AXIS,PERIOD,APOGEE,PERIGEE,DECAYED
54160.0,STARLINK-5233,PAYLOAD,2024-06-11 13:14:04,15.08961409,0.0002076,53.218,304.8245,71.6046,288.5172,-0.0017361,-0.00027904,0.0,0 STARLINK-5233,1 54160U 22141D   24163.55143655 -.00027904  00000-0 -17361-2 0  9990,2 54160  53.2180 304.8245 0002076  71.6046 288.5172 15.08961409 90311,6917.509,95.43,540.81,537.938,0.0
54160.0,STARLINK-5233,PAYLOAD,2024-06-11 19:35:40,15.08841648,0.0001198,53.2177,303.6326,100.6005,259.5122,0.00016992,2.418e-05,0.0,0 STARLINK-5233,1 54160U 22141D   24163.81643697  .00002418  00000-0  16992-3 0  9991,2 54160  53.2177 303.6326 0001198 100.6005 259.5122 15.08841648 90355,6917.875,95.437,540.569,538.912,0.0
54160.0,STARLINK-5233,PAYLOAD,2024-06-12 13:04:55,15.08833983,0.0001191,53.2179,300.3625,99.5731,260.5396,2.196e-05,6.2e-07,0.0,0 STARLINK-5233,1 54160U 22141D   24164.54508754  .00000062  00000-0  21960-4 0  9991,2 54160  53.2179 300.3625 0001191  99.5731 260.5396 15.08833983 90468,6917.899,95.438,540.588,538.94,0.0
54160.0,STARLINK-5233,PAYLOAD,2024-06-12 14:40:18,15.08832931,0.0001105,53.218,300.0653,89.2674,270.8445,1.4075e-05,-6.4e-07,0.0,0 STARLINK-5233,1 54160U 22141D   24164.61132896 -.00000064  00000-0  14075-4 0  9991,2 54160  53.2180 300.0653 0001105  89.2674 270.8445 15.08832931 90477,6917.902,95.438,540.531,539.003,0.0
54160.0,STARLINK-5233,PAYLOAD,2024-06-13 14:31:05,15.08840859,0.0001108,53.2181,295.6055,97.9723,262.1395,3.7207e-05,3.04e-06,0.0,0 STARLINK-5233,1 54160U 22141D   24165.60492532  .00000304  00000-0  37207-4 0  9995,2 54160  53.2181 295.6055 0001108  97.9723 262.1395 15.08840859 90620,6917.878,95.438,540.509,538.976,0.0
54160.0,STARLINK-5233,PAYLOAD,2024-06-13 17:41:51,15.08845743,0.000108,53.2178,295.0068,76.2299,283.8813,4.1876e-05,3.79e-06,0.0,0 STARLINK-5233,1 54160U 22141D   24165.73740244  .00000379  00000-0  41876-4 0  9994,2 54160  53.2178 295.0068 0001080  76.2299 283.8813 15.08845743 90645,6917.863,95.437,540.475,538.981,0.0
54160.0,STARLINK-5233,PAYLOAD,2024-06-14 14:21:52,15.08839026,0.0001174,53.2181,291.1388,78.0099,282.1024,0.00012165,1.649e-05,0.0,0 STARLINK-5233,1 54160U 22141D   24166.59852593  .00001649  00000-0  12165-3 0  9999,2 54160  53.2181 291.1388 0001174  78.0099 282.1024 15.08839026 90770,6917.883,95.438,540.561,538.936,0.0
54160.0,STARLINK-5233,PAYLOAD,2024-06-15 14:12:39,15.08838395,9.47e-05,53.2181,286.6837,87.2968,272.8132,3.6147e-06,-2.3e-06,0.0,0 STARLINK-5233,1 54160U 22141D   24167.59212886 -.00000230  00000-0  36147-5 0  9999,2 54160  53.2181 286.6837 0000947  87.2968 272.8132 15.08838395 90923,6917.885,95.438,540.405,539.095,0.0
54160.0,STARLINK-5233,PAYLOAD,2024-06-15 17:23:25,15.08845183,0.0001171,53.2178,286.0858,96.7847,263.3278,6.1035e-05,6.84e-06,0.0,0 STARLINK-5233,1 54160U 22141D   24167.72460245  .00000684  00000-0  61035-4 0  9993,2 54160  53.2178 286.0858 0001171  96.7847 263.3278 15.08845183 90948,6917.865,95.437,540.54,538.919,0.0
54160.0,STARLINK-5233,PAYLOAD,2024-06-16 14:03:26,15.0884708,0.0001675,53.2178,282.2197,110.5574,249.5598,4.4475e-05,4.2e-06,0.0,0 STARLINK-5233,1 54160U 22141D   24168.58571987  .00000420  00000-0  44475-4 0  9991,2 54160  53.2178 282.2197 0001675 110.5574 249.5598 15.08847080 91077,6917.859,95.437,540.882,538.565,0.0
54160.0,STARLINK-5233,PAYLOAD,2024-06-16 17:14:12,15.08842621,0.0001466,53.2193,281.626,101.8011,258.3145,-2.5083e-06,-3.28e-06,0.0,0 STARLINK-5233,1 54160U 22141D   24168.71820341 -.00000328  00000-0 -25083-5 0  9991,2 54160  53.2193 281.6260 0001466 101.8011 258.3145 15.08842621 91099,6917.872,95.437,540.752,538.723,0.0
54160.0,STARLINK-5233,PAYLOAD,2024-06-17 17:05:00,15.08835573,0.0001379,53.2186,277.167,107.5101,252.6041,-2.2863e-05,-6.52e-06,0.0,0 STARLINK-5233,1 54160U 22141D   24169.71180843 -.00000652  00000-0 -22863-4 0  9990,2 54160  53.2186 277.1670 0001379 107.5101 252.6041 15.08835573 91249,6917.894,95.438,540.713,538.805,0.0
54160.0,STARLINK-5233,PAYLOAD,2024-06-18 13:45:00,15.08838281,9.25e-05,53.2168,273.3054,89.0476,271.0622,0.00013836,1.915e-05,0.0,0 STARLINK-5233,1 54160U 22141D   24170.57292238  .00001915  00000-0  13836-3 0  9998,2 54160  53.2168 273.3054 0000925  89.0476 271.0622 15.08838281 91371,6917.886,95.438,540.391,539.111,0.0
54160.0,STARLINK-5233,PAYLOAD,2024-06-19 13:35:48,15.08825706,0.0001179,53.2173,268.8431,90.8564,269.2563,-1.6235e-05,-5.46e-06,0.0,0 STARLINK-5233,1 54160U 22141D   24171.56653767 -.00000546  00000-0 -16235-4 0  9994,2 54160  53.2173 268.8431 0001179  90.8564 269.2563 15.08825706 91523,6917.924,95.438,540.605,538.973,0.0
54160.0,STARLINK-5233,PAYLOAD,2024-06-20 13:26:34,15.08843963,0.0001147,53.2168,264.3824,89.5769,270.5355,7.1648e-05,8.53e-06,0.0,0 STARLINK-5233,1 54160U 22141D   24172.56012723  .00000853  00000-0  71648-4 0  9994,2 54160  53.2168 264.3824 0001147  89.5769 270.5355 15.08843963 91676,6917.868,95.437,540.527,538.94,0.0
54160.0,STARLINK-5233,PAYLOAD,2024-06-20 15:01:58,15.08844016,0.0001178,53.217,264.085,91.4398,268.6729,8.7234e-05,1.101e-05,0.0,0 STARLINK-5233,1 54160U 22141D   24172.62636667  .00001101  00000-0  87234-4 0  9995,2 54160  53.2170 264.0850 0001178  91.4398 268.6729 15.08844016 91683,6917.868,95.437,540.548,538.918,0.0
54160.0,STARLINK-5233,PAYLOAD,2024-06-21 05:20:27,15.08833085,0.0002263,53.2174,261.4114,86.6076,273.5175,0.00016843,2.393e-05,0.0,0 STARLINK-5233,1 54160U 22141D   24173.22253479  .00002393  00000-0  16843-3 0  9999,2 54160  53.2174 261.4114 0002263  86.6076 273.5175 15.08833085 91770,6917.902,95.438,541.332,538.201,0.0
54160.0,STARLINK-5233,PAYLOAD,2024-06-21 11:42:00,15.08819231,0.0001438,53.2178,260.2211,90.9498,269.1659,4.5795e-05,4.41e-06,0.0,0 STARLINK-5233,1 54160U 22141D   24173.48750923  .00000441  00000-0  45795-4 0  9994,2 54160  53.2178 260.2211 0001438  90.9498 269.1659 15.08819231 91818,6917.944,95.439,540.804,538.814,0.0
54160.0,STARLINK-5233,PAYLOAD,2024-06-21 13:17:23,15.08820691,0.0001382,53.2174,259.9236,88.1713,271.9438,6.5143e-05,7.48e-06,0.0,0 STARLINK-5233,1 54160U 22141D   24173.55374918  .00000748  00000-0  65143-4 0  9997,2 54160  53.2174 259.9236 0001382  88.1713 271.9438 15.08820691 91822,6917.939,95.439,540.76,538.848,0.0
54160.0,STARLINK-5233,PAYLOAD,2024-06-22 11:32:46,15.08846991,0.0001335,53.2173,255.76,89.4119,270.7026,0.00011049,1.471e-05,0.0,0 STARLINK-5233,1 54160U 22141D   24174.48109570  .00001471  00000-0  11049-3 0  9999,2 54160  53.2173 255.7600 0001335  89.4119 270.7026 15.08846991 91968,6917.859,95.437,540.648,538.8,0.0
54160.0,STARLINK-5233,PAYLOAD,2024-06-23 14:34:19,15.08847605,0.0001165,53.2157,250.7026,93.1974,266.9152,0.00027722,4.128e-05,0.0,0 STARLINK-5233,1 54160U 22141D   24175.60717472  .00004128  00000-0  27722-3 0  9997,2 54160  53.2157 250.7026 0001165  93.1974 266.9152 15.08847605 92139,6917.857,95.437,540.528,538.916,0.0
54160.0,STARLINK-5233,PAYLOAD,2024-06-24 11:14:20,15.08852182,0.0001141,53.2158,246.8359,89.1295,270.9828,0.00011188,1.494e-05,0.0,0 STARLINK-5233,1 54160U 22141D   24176.46828740  .00001494  00000-0  11188-3 0  9995,2 54160  53.2158 246.8359 0001141  89.1295 270.9828 15.08852182 92265,6917.843,95.437,540.497,538.919,0.0
54160.0,STARLINK-5233,PAYLOAD,2024-06-25 11:05:07,15.08841034,0.0001149,53.2165,242.3759,81.7292,278.383,-1.5091e-05,-5.28e-06,0.0,0 STARLINK-5233,1 54160U 22141D   24177.46189192 -.00000528  00000-0 -15091-4 0  9994,2 54160  53.2165 242.3759 0001149  81.7292 278.3830 15.08841034 92417,6917.877,95.437,540.537,538.947,0.0
54160.0,STARLINK-5233,PAYLOAD,2024-06-25 12:40:30,15.0884098,0.000116,53.2166,242.0788,83.8716,276.2408,-2.0189e-05,-6.09e-06,0.0,0 STARLINK-5233,1 54160U 22141D   24177.52813175 -.00000609  00000-0 -20189-4 0  9990,2 54160  53.2166 242.0788 0001160  83.8716 276.2408 15.08840980 92422,6917.877,95.437,540.545,538.94,0.0
54160.0,STARLINK-5233,PAYLOAD,2024-06-26 12:31:17,15.08840871,0.0001267,53.2165,237.619,97.0303,263.0833,3.6458e-05,2.92e-06,0.0,0 STARLINK-5233,1 54160U 22141D   24178.52172875  .00000292  00000-0  36458-4 0  9998,2 54160  53.2165 237.6190 0001267  97.0303 263.0833 15.08840871 92576,6917.878,95.437,540.619,538.866,0.0
54160.0,STARLINK-5233,PAYLOAD,2024-06-27 10:46:41,15.08832345,0.0001182,53.2158,233.4572,95.2281,264.8846,4.8525e-05,4.84e-06,0.0,0 STARLINK-5233,1 54160U 22141D   24179.44909633  .00000484  00000-0  48525-4 0  9991,2 54160  53.2158 233.4572 0001182  95.2281 264.8846 15.08832345 92713,6917.904,95.438,540.586,538.951,0.0
54160.0,STARLINK-5233,PAYLOAD,2024-06-28 10:37:28,15.08841625,0.0001142,53.2154,228.9955,87.8944,272.2179,6.5426e-05,7.54e-06,0.0,0 STARLINK-5233,1 54160U 22141D   24180.44269232  .00000754  00000-0  65426-4 0  9996,2 54160  53.2154 228.9955 0001142  87.8944 272.2179 15.08841625 92861,6917.875,95.437,540.53,538.95,0.0
54160.0,STARLINK-5233,PAYLOAD,2024-06-29 12:03:39,15.08834697,0.0001172,53.2151,224.2381,92.0612,268.0514,4.4307e-05,4.17e-06,0.0,0 STARLINK-5233,1 54160U 22141D   24181.50254053  .00000417  00000-0  44307-4 0  9990,2 54160  53.2151 224.2381 0001172  92.0612 268.0514 15.08834697 93029,6917.897,95.438,540.572,538.951,0.0
54160.0,STARLINK-5233,PAYLOAD,2024-06-29 20:00:35,15.088385,0.0001217,53.2156,222.7519,93.8765,266.2366,4.6799e-05,4.57e-06,0.0,0 STARLINK-5233,1 54160U 22141D   24181.83373886  .00000457  00000-0  46799-4 0  9993,2 54160  53.2156 222.7519 0001217  93.8765 266.2366 15.08838500 93075,6917.885,95.438,540.592,538.908,0.0
54160.0,STARLINK-5233,PAYLOAD,2024-06-30 10:19:03,15.08839492,0.0001325,53.2154,220.076,92.8216,267.2928,6.3364e-05,7.21e-06,0.0,0 STARLINK-5233,1 54160U 22141D   24182.42989838  .00000721  00000-0  63364-4 0  9990,2 54160  53.2154 220.0760 0001325  92.8216 267.2928 15.08839492 93168,6917.882,95.438,540.664,538.83,0.0
